STARLINK-2609
1 28373C 21038W   21325.12796372  .00033425  00000-0  22390-2 0  3257
2 28373  53.0544 197.6581 0002200  70.0130 338.0516 15.06372086    15
